[{"OBJECT_NAME":"2026-027G","OBJECT_ID":"2026-027G","EPOCH":"2026-03-03T07:14:21.981984","MEAN_MOTION":15.18068742,"ECCENTRICITY":0.0009456,"INCLINATION":97.4902,"RA_OF_ASC_NODE":191.3995,"ARG_OF_PERICENTER":230.9803,"MEAN_ANOMALY":129.059,"EPHEMERIS_TYPE":0,"CLASSIFICATION_TYPE":"U","NORAD_CAT_ID":67752,"ELEMENT_SET_NO":999,"REV_AT_EPOCH":289,"BSTAR":0.00058389,"MEAN_MOTION_DOT":0.0001185,"MEAN_MOTION_DDOT":0},{"OBJECT_NAME":"2026-027H","OBJECT_ID":"2026-027H","EPOCH":"2026-03-03T11:07:35.339808","MEAN_MOTION":15.6970283,"ECCENTRICITY":0.0233574,"INCLINATION":97.5128,"RA_OF_ASC_NODE":192.9967,"ARG_OF_PERICENTER":267.7618,"MEAN_ANOMALY":89.6884,"EPHEMERIS_TYPE":0,"CLASSIFICATION_TYPE":"U","NORAD_CAT_ID":67753,"ELEMENT_SET_NO":999,"REV_AT_EPOCH":300,"BSTAR":0.00062927,"MEAN_MOTION_DOT":0.00408685,"MEAN_MOTION_DDOT":2.3771e-6},{"OBJECT_NAME":"2026-027J","OBJECT_ID":"2026-027J","EPOCH":"2026-03-03T11:33:11.552544","MEAN_MOTION":15.91462086,"ECCENTRICITY":0.0164838,"INCLINATION":97.5069,"RA_OF_ASC_NODE":193.2777,"ARG_OF_PERICENTER":266.7794,"MEAN_ANOMALY":91.461,"EPHEMERIS_TYPE":0,"CLASSIFICATION_TYPE":"U","NORAD_CAT_ID":67754,"ELEMENT_SET_NO":999,"REV_AT_EPOCH":296,"BSTAR":0.0012637,"MEAN_MOTION_DOT":0.01516734,"MEAN_MOTION_DDOT":2.4425e-6},{"OBJECT_NAME":"2026-028A","OBJECT_ID":"2026-028A","EPOCH":"2026-03-03T07:37:03.606240","MEAN_MOTION":0.99524202,"ECCENTRICITY":0.0042007,"INCLINATION":0.4855,"RA_OF_ASC_NODE":289.4925,"ARG_OF_PERICENTER":229.3765,"MEAN_ANOMALY":201.2691,"EPHEMERIS_TYPE":0,"CLASSIFICATION_TYPE":"U","NORAD_CAT_ID":67756,"ELEMENT_SET_NO":999,"REV_AT_EPOCH":19,"BSTAR":0,"MEAN_MOTION_DOT":-4.5e-7,"MEAN_MOTION_DDOT":0},{"OBJECT_NAME":"KUIPER-00159","OBJECT_ID":"2026-030A","EPOCH":"2026-03-03T12:21:19.373184","MEAN_MOTION":15.35428767,"ECCENTRICITY":0.0004306,"INCLINATION":51.8839,"RA_OF_ASC_NODE":248.9383,"ARG_OF_PERICENTER":29.6067,"MEAN_ANOMALY":330.5162,"EPHEMERIS_TYPE":0,"CLASSIFICATION_TYPE":"U","NORAD_CAT_ID":67764,"ELEMENT_SET_NO":999,"REV_AT_EPOCH":414,"BSTAR":0.00069703,"MEAN_MOTION_DOT":0.00024059,"MEAN_MOTION_DDOT":0},{"OBJECT_NAME":"KUIPER-00160","OBJECT_ID":"2026-030B","EPOCH":"2026-03-03T12:22:46.192224","MEAN_MOTION":15.3530059,"ECCENTRICITY":0.000452,"INCLINATION":51.8806,"RA_OF_ASC_NODE":248.9386,"ARG_OF_PERICENTER":42.7206,"MEAN_ANOMALY":317.413,"EPHEMERIS_TYPE":0,"CLASSIFICATION_TYPE":"U","NORAD_CAT_ID":67765,"ELEMENT_SET_NO":999,"REV_AT_EPOCH":414,"BSTAR":0.00060209,"MEAN_MOTION_DOT":0.00020635,"MEAN_MOTION_DDOT":0},{"OBJECT_NAME":"KUIPER-00177","OBJECT_ID":"2026-030C","EPOCH":"2026-03-03T12:06:52.470144","MEAN_MOTION":15.36212918,"ECCENTRICITY":6.58e-5,"INCLINATION":51.8827,"RA_OF_ASC_NODE":248.8708,"ARG_OF_PERICENTER":16.1023,"MEAN_ANOMALY":343.9984,"EPHEMERIS_TYPE":0,"CLASSIFICATION_TYPE":"U","NORAD_CAT_ID":67766,"ELEMENT_SET_NO":999,"REV_AT_EPOCH":414,"BSTAR":0.00072217,"MEAN_MOTION_DOT":0.00025583,"MEAN_MOTION_DDOT":0},{"OBJECT_NAME":"KUIPER-00178","OBJECT_ID":"2026-030D","EPOCH":"2026-03-03T12:25:08.944896","MEAN_MOTION":15.35222254,"ECCENTRICITY":0.0005767,"INCLINATION":51.8825,"RA_OF_ASC_NODE":248.9532,"ARG_OF_PERICENTER":29.7944,"MEAN_ANOMALY":330.3369,"EPHEMERIS_TYPE":0,"CLASSIFICATION_TYPE":"U","NORAD_CAT_ID":67767,"ELEMENT_SET_NO":999,"REV_AT_EPOCH":414,"BSTAR":0.00074988,"MEAN_MOTION_DOT":0.00025751,"MEAN_MOTION_DDOT":0},{"OBJECT_NAME":"KUIPER-00180","OBJECT_ID":"2026-030E","EPOCH":"2026-03-03T11:29:35.967264","MEAN_MOTION":15.32166873,"ECCENTRICITY":0.0014417,"INCLINATION":51.8796,"RA_OF_ASC_NODE":249.4303,"ARG_OF_PERICENTER":51.6206,"MEAN_ANOMALY":308.6071,"EPHEMERIS_TYPE":0,"CLASSIFICATION_TYPE":"U","NORAD_CAT_ID":67768,"ELEMENT_SET_NO":999,"REV_AT_EPOCH":413,"BSTAR":-8.0354e-5,"MEAN_MOTION_DOT":-2.918e-5,"MEAN_MOTION_DDOT":0},{"OBJECT_NAME":"KUIPER-00197","OBJECT_ID":"2026-030F","EPOCH":"2026-03-03T12:09:44.525376","MEAN_MOTION":15.36098638,"ECCENTRICITY":0.0001199,"INCLINATION":51.8827,"RA_OF_ASC_NODE":248.8849,"ARG_OF_PERICENTER":58.0066,"MEAN_ANOMALY":302.1037,"EPHEMERIS_TYPE":0,"CLASSIFICATION_TYPE":"U","NORAD_CAT_ID":67769,"ELEMENT_SET_NO":999,"REV_AT_EPOCH":414,"BSTAR":0.0010186,"MEAN_MOTION_DOT":0.00036161,"MEAN_MOTION_DDOT":0},{"OBJECT_NAME":"KUIPER-00198","OBJECT_ID":"2026-030G","EPOCH":"2026-03-03T12:16:06.600864","MEAN_MOTION":15.35731151,"ECCENTRICITY":0.0002835,"INCLINATION":51.8805,"RA_OF_ASC_NODE":248.9083,"ARG_OF_PERICENTER":33.5088,"MEAN_ANOMALY":326.6077,"EPHEMERIS_TYPE":0,"CLASSIFICATION_TYPE":"U","NORAD_CAT_ID":67770,"ELEMENT_SET_NO":999,"REV_AT_EPOCH":414,"BSTAR":0.00072168,"MEAN_MOTION_DOT":0.00025169,"MEAN_MOTION_DDOT":0},{"OBJECT_NAME":"KUIPER-00199","OBJECT_ID":"2026-030H","EPOCH":"2026-03-03T11:10:41.261376","MEAN_MOTION":15.34066195,"ECCENTRICITY":0.0010132,"INCLINATION":51.8796,"RA_OF_ASC_NODE":249.3471,"ARG_OF_PERICENTER":42.9652,"MEAN_ANOMALY":317.2123,"EPHEMERIS_TYPE":0,"CLASSIFICATION_TYPE":"U","NORAD_CAT_ID":67771,"ELEMENT_SET_NO":999,"REV_AT_EPOCH":413,"BSTAR":0.00088739,"MEAN_MOTION_DOT":0.00029475,"MEAN_MOTION_DDOT":0},{"OBJECT_NAME":"KUIPER-00200","OBJECT_ID":"2026-030J","EPOCH":"2026-03-03T11:58:54.833664","MEAN_MOTION":15.36730849,"ECCENTRICITY":0.0001528,"INCLINATION":51.8806,"RA_OF_ASC_NODE":248.8325,"ARG_OF_PERICENTER":206.6793,"MEAN_ANOMALY":153.4115,"EPHEMERIS_TYPE":0,"CLASSIFICATION_TYPE":"U","NORAD_CAT_ID":67772,"ELEMENT_SET_NO":999,"REV_AT_EPOCH":414,"BSTAR":0.00073556,"MEAN_MOTION_DOT":0.0002651,"MEAN_MOTION_DDOT":0},{"OBJECT_NAME":"KUIPER-00203","OBJECT_ID":"2026-030K","EPOCH":"2026-03-03T12:00:00.998784","MEAN_MOTION":15.26119019,"ECCENTRICITY":0.001211,"INCLINATION":51.8801,"RA_OF_ASC_NODE":249.3101,"ARG_OF_PERICENTER":43.2038,"MEAN_ANOMALY":68.6823,"EPHEMERIS_TYPE":0,"CLASSIFICATION_TYPE":"U","NORAD_CAT_ID":67773,"ELEMENT_SET_NO":999,"REV_AT_EPOCH":270,"BSTAR":-0.058843,"MEAN_MOTION_DOT":-0.01401736,"MEAN_MOTION_DDOT":0},{"OBJECT_NAME":"KUIPER-00205","OBJECT_ID":"2026-030L","EPOCH":"2026-03-03T12:10:47.516160","MEAN_MOTION":15.36073162,"ECCENTRICITY":0.0002448,"INCLINATION":51.8806,"RA_OF_ASC_NODE":248.8845,"ARG_OF_PERICENTER":3.3789,"MEAN_ANOMALY":356.7213,"EPHEMERIS_TYPE":0,"CLASSIFICATION_TYPE":"U","NORAD_CAT_ID":67774,"ELEMENT_SET_NO":999,"REV_AT_EPOCH":414,"BSTAR":0.0007274,"MEAN_MOTION_DOT":0.00025655,"MEAN_MOTION_DDOT":0},{"OBJECT_NAME":"KUIPER-00208","OBJECT_ID":"2026-030M","EPOCH":"2026-03-03T11:26:29.181696","MEAN_MOTION":15.32805833,"ECCENTRICITY":0.001373,"INCLINATION":51.8822,"RA_OF_ASC_NODE":249.4249,"ARG_OF_PERICENTER":46.8876,"MEAN_ANOMALY":313.3255,"EPHEMERIS_TYPE":0,"CLASSIFICATION_TYPE":"U","NORAD_CAT_ID":67775,"ELEMENT_SET_NO":999,"REV_AT_EPOCH":413,"BSTAR":0.00096718,"MEAN_MOTION_DOT":0.0003094,"MEAN_MOTION_DDOT":0},{"OBJECT_NAME":"KUIPER-00209","OBJECT_ID":"2026-030N","EPOCH":"2026-03-03T11:31:17.828544","MEAN_MOTION":15.31356711,"ECCENTRICITY":0.0012916,"INCLINATION":51.8814,"RA_OF_ASC_NODE":249.4443,"ARG_OF_PERICENTER":48.4746,"MEAN_ANOMALY":311.7344,"EPHEMERIS_TYPE":0,"CLASSIFICATION_TYPE":"U","NORAD_CAT_ID":67776,"ELEMENT_SET_NO":999,"REV_AT_EPOCH":413,"BSTAR":-9.0756e-5,"MEAN_MOTION_DOT":-3.168e-5,"MEAN_MOTION_DDOT":0}]
