2026-027G               
1 67752U 26027G   26062.30164331  .00011850  00000+0  58389-3 0  9991
2 67752  97.4902 191.3995 0009456 230.9803 129.0590 15.18068742  2893
2026-027H               
1 67753U 26027H   26062.46360347  .00408685  23771-5  62927-3 0  9999
2 67753  97.5128 192.9967 0233574 267.7618  89.6884 15.69702830  3003
2026-027J               
1 67754U 26027J   26062.48138371  .01516734  24425-5  12637-2 0  9997
2 67754  97.5069 193.2777 0164838 266.7794  91.4610 15.91462086  2964
2026-028A               
1 67756U 26028A   26062.31740285 -.00000045  00000+0  00000+0 0  9993
2 67756   0.4855 289.4925 0042007 229.3765 201.2691  0.99524202   195
KUIPER-00159            
1 67764U 26030A   26062.51480756  .00024059  00000+0  69703-3 0  9990
2 67764  51.8839 248.9383 0004306  29.6067 330.5162 15.35428767  4143
KUIPER-00160            
1 67765U 26030B   26062.51581241  .00020635  00000+0  60209-3 0  9990
2 67765  51.8806 248.9386 0004520  42.7206 317.4130 15.35300590  4142
KUIPER-00177            
1 67766U 26030C   26062.50477396  .00025583  00000+0  72217-3 0  9994
2 67766  51.8827 248.8708 0000658  16.1023 343.9984 15.36212918  4141
KUIPER-00178            
1 67767U 26030D   26062.51746464  .00025751  00000+0  74988-3 0  9995
2 67767  51.8825 248.9532 0005767  29.7944 330.3369 15.35222254  4144
KUIPER-00180            
1 67768U 26030E   26062.47888851 -.00002918  00000+0 -80354-4 0  9995
2 67768  51.8796 249.4303 0014417  51.6206 308.6071 15.32166873  4139
KUIPER-00197            
1 67769U 26030F   26062.50676534  .00036161  00000+0  10186-2 0  9992
2 67769  51.8827 248.8849 0001199  58.0066 302.1037 15.36098638  4140
KUIPER-00198            
1 67770U 26030G   26062.51118751  .00025169  00000+0  72168-3 0  9992
2 67770  51.8805 248.9083 0002835  33.5088 326.6077 15.35731151  4147
KUIPER-00199            
1 67771U 26030H   26062.46575534  .00029475  00000+0  88739-3 0  9998
2 67771  51.8796 249.3471 0010132  42.9652 317.2123 15.34066195  4138
KUIPER-00200            
1 67772U 26030J   26062.49924576  .00026510  00000+0  73556-3 0  9994
2 67772  51.8806 248.8325 0001528 206.6793 153.4115 15.36730849  4145
KUIPER-00203            
1 67773U 26030K   26062.50001156 -.01401736  00000+0 -58843-1 0  9997
2 67773  51.8801 249.3101 0012110  43.2038  68.6823 15.26119019  2707
KUIPER-00205            
1 67774U 26030L   26062.50749440  .00025655  00000+0  72740-3 0  9996
2 67774  51.8806 248.8845 0002448   3.3789 356.7213 15.36073162  4148
KUIPER-00208            
1 67775U 26030M   26062.47672664  .00030940  00000+0  96718-3 0  9990
2 67775  51.8822 249.4249 0013730  46.8876 313.3255 15.32805833  4135
KUIPER-00209            
1 67776U 26030N   26062.48006746 -.00003168  00000+0 -90756-4 0  9995
2 67776  51.8814 249.4443 0012916  48.4746 311.7344 15.31356711  4138
